CIC_OEM_VERS = 2.0
CREATION_DATE = 2025-01-22T08:31:26.977217
ORIGINATOR = ISAE-SUPAERO


META_START
OBJECT_NAME = BLUE1
OBJECT_ID = BLUE1
CENTER_NAME = Earth
REF_FRAME = EME2000
TIME_SYSTEM = UTC
START_TIME = 2025-01-22T00:00:00.000
USEABLE_START_TIME = 2025-01-22T00:00:00.000
USEABLE_STOP_TIME = 2025-01-23T00:00:00.000
STOP_TIME = 2025-01-23T00:00:00.000
INTERPOLATION = lagrange
INTERPOLATION_DEGREE = 5
META_STOP



60697 0.0 -6095.3416 2659.373 2003.0687 -1.5270423000000002 1.8416488 -7.203649500000001
60697 450.0 -6033.3461 3140.1957 -1346.919 1.7999716000000001 0.25068591 -7.3832835999999995
60697 900.0 -4538.903 2875.4362 -4375.9371 4.7069887 -1.4033661 -5.8053982
60697 1350.0 -1967.1076 1928.2489 -6364.019700000001 6.4907025 -2.7201417 -2.8541088
60697 1800.0 1070.0328000000002 525.36667 -6845.5441 6.7359211 -3.3887145999999997 0.75306521
60697 2250.0 3856.8767000000003 -1001.1206999999999 -5716.6762 5.4043931 -3.2604689 4.160070800000001
60697 2700.0 5745.1988 -2294.5726 -3251.1199 2.8241246 -2.3750241 6.5776877
60697 3150.0 6301.8816 -3056.3097000000002 -29.230054 -0.39607838 -0.94486758 7.4577027
60697 3600.0 5404.774200000001 -3113.0785 3199.9914 -3.5106595000000005 0.69640079 6.6123893
60697 4050.0 3265.4714 -2454.4393999999998 5692.2780999999995 -5.810552700000001 2.1731949 4.247422899999999
60697 4500.0 376.76685 -1232.5027 6874.6001 -6.776969 3.1516900000000003 0.90231417
60697 4950.0 -2598.007 272.87531 6469.9678 -6.1829485 3.4073924000000004 -2.669883
60697 5400.0 -4969.0927 1714.4268000000002 4560.820900000001 -4.1416873 2.8709502000000002 -5.6511598
60697 5850.0 -6174.805 2753.6324 1581.0562 -1.1046198 1.6530470000000002 -7.3280905
60697 6300.0 -5920.2738 3141.5163 -1772.6532 2.2155052 0.034730437 -7.2746119
60697 6750.0 -4259.7285 2783.2865 -4704.0142000000005 5.0143899 -1.5941994 -5.489159399999999
60697 7200.0 -1588.4575 1764.7558000000001 -6516.8938 6.616737199999999 -2.8400385000000004 -2.4079005
60697 7650.0 1458.4764 329.45617 -6788.235000000001 6.653042900000001 -3.4102257000000002 1.2220125000000002
60697 8100.0 4164.2791 -1183.426 -5464.057900000001 5.1346692 -3.1799219 4.5420472
60697 8550.0 5900.6488 -2420.9927000000002 -2863.2307 2.4320673000000004 -2.2122515 6.7853309
60697 9000.0 6270.2627 -3097.9159 403.30039000000005 -0.8190077800000001 -0.7382014 7.4449452
60697 9450.0 5194.2417000000005 -3060.7038 3577.1556 -3.867503 0.8992998400000001 6.3841567999999995
60697 9900.0 2924.844 -2320.3761 5927.415400000001 -6.020833400000001 2.3263904 3.8566649
60697 10350.0 -15.80181 -1047.4768000000001 6913.372200000001 -6.792894 3.2205700999999998 0.43703028
60697 10800.0 -2952.0619 466.41625 6302.2121 -5.9986093 3.3753452000000004 -3.1045928
60697 11250.0 -5201.6035999999995 1871.4261000000001 4223.7203 -3.7959744 2.7434529000000003 -5.953546500000001
60697 11700.0 -6229.6814 2836.7136 1152.5067 -0.67668396 1.4584929 -7.4231863
60697 12150.0 -5783.2177 3130.4264 -2191.38 2.6228535 -0.18059023 -7.1364115
60697 12600.0 -3963.0107000000003 2680.5115 -5013.201599999999 5.3020047 -1.7779299000000002 -5.1507646000000005
60697 13050.0 -1202.858 1594.9553 -6643.6303 6.7164679 -2.9482675 -1.9522005999999998
60697 13500.0 1841.7528 132.99091 -6703.8066 6.5437577000000005 -3.4183925 1.6858474
60697 13950.0 4455.7748 -1360.4935 -5189.668900000001 4.8445359 -3.0874675000000003 4.9058725
60697 14400.0 6033.2645999999995 -2537.6528 -2463.9047 2.0302276 -2.0416759 6.9661203
60697 14850.0 6214.247 -3127.5288 834.4003100000001 -1.2390275 -0.52958349 7.4029976
60697 15300.0 4963.343900000001 -2996.8593 3940.4815 -4.2097228 1.0979860000000001 6.1309983
60697 15750.0 2572.4734 -2177.9474 6139.495400000001 -6.2081317 2.4702687 3.450612
60697 16200.0 -408.81165000000004 -859.0658000000001 6925.040599999999 -6.7824896 3.2770249 -0.030606784
60697 16650.0 -3295.0133 657.53138 6109.3998 -5.790243800000001 3.3303628 -3.5279411
60697 17100.0 -5413.7775 2020.6052 3869.4532000000004 -3.4341862 2.6054405000000003 -6.2328387
60697 17550.0 -6259.6319 2908.3123 718.91813 -0.24496375 1.2585671 -7.4885256
60697 18000.0 -5622.6239000000005 3106.9275000000002 -2601.6277999999998 3.0203524 -0.39453931000000003 -6.9692107
60697 18450.0 -3649.8552000000004 2567.4425 -5302.4407 5.5686114 -1.9538467000000002 -4.7914887
60697 18900.0 -811.81123 1419.4593 -6743.8737 6.7893661000000005 -3.044316 -1.4888101999999999
60697 19350.0 2218.3225 -63.266034 -6592.7658 6.4084098 -3.4130561 2.1426228000000003
60697 19800.0 4730.173400000001 -1531.5776 -4894.849 4.535188600000001 -2.9833591000000004 5.249863599999999
60697 20250.0 6142.5466 -2644.0333 -2055.0843999999997 1.6204076 -1.8640319 7.1191494
60697 20700.0 6134.1953 -3145.0198 1261.9504 -1.6541818000000001 -0.31997064000000003 7.3319976
60697 21150.0 4713.282 -2921.8424 4288.1563 -4.535604500000001 1.2915648000000002 5.8541282
60697 21600.0 2210.1879 -2027.8153 6327.4709 -6.3714756 2.6041281 3.0313728
60697 22050.0 -800.21538 -668.17482 6909.5914 -6.7457503 3.3206976 -0.49818309
60697 22500.0 -3625.0396 845.25558 5892.6044 -5.5588695 3.2725512 -3.9375679
60697 22950.0 -5604.494 2161.1794 3500.0615000000003 -3.0583687 2.4576154000000003 -6.4872269
60697 23400.0 -6264.6158 2968.0964 282.891 0.18791966 1.0545404 -7.523560300000001
60697 23850.0 -5439.6094 3071.292 -3000.8777000000005 3.4055699 -0.6057997500000001 -6.7739079
60697 24300.0 -3322.3233 2444.8645 -5569.9220000000005 5.8125571 -2.1210378999999997 -4.4135228
60697 24750.0 -417.83188 1239.3346000000001 -6816.9686 6.835109 -3.1278501000000003 -1.0205435999999999
60697 25200.0 2585.839 -258.24068 -6455.6828 6.2479906000000005 -3.3944933 2.5898242000000002
60697 25650.0 4985.795099999999 -1695.8516000000002 -4581.1139 4.2085076 -2.8683916 5.5724299
60697 26100.0 6227.7393 -2739.7251 -1638.73 1.2047379 -1.6803269 7.2440218000000005
60697 26550.0 6030.2824 -3150.4331 1684.0518000000002 -2.062527 -0.11034483 7.2325808
60697 27000.0 4444.9855 -2836.1268999999998 4618.7597000000005 -4.843815800000001 1.4791176000000001 5.5549781000000005
60697 27450.0 1839.3406000000002 -1870.8164 6490.656 -6.5102815000000005 2.7273166 2.6007249000000003
60697 27900.0 -1188.5389 -475.83789 6867.196400000001 -6.682742 3.3513849000000002 -0.96368032
60697 28350.0 -3940.8720000000003 1028.5954000000002 5652.916 -5.305353 3.2023354 -4.3314918
60697 28800.0 -5773.0374 2292.5042000000003 3117.3830000000003 -2.6700197 2.3010341 -6.7154802
60697 29250.0 -6244.6533 3015.9241 -153.42166 0.62021874 0.8475 -7.5281295
60697 29700.0 -5235.0061 3023.8585000000003 -3387.1798 3.7767784000000004 -0.81331167 -6.5515993
60697 30150.0 -2981.8599 2313.5492000000004 -5814.4197 6.0329259 -2.2787032 -4.018876000000001
60697 30600.0 -22.55347 1055.5932 -6862.6485999999995 6.8537609 -3.198616 -0.5496049500000001
60697 30698.0 6634.8377 931.66061 30.561242 -1.0729113 7.6275656000000005 0.40213873
60697 30878.0 6301.1726 2274.9994 101.7769 -2.6215682 7.2436212 0.38623433
60697 31058.0 5697.6098 3520.8794 168.61713 -4.058664 6.5496502 0.35374702
60697 31238.0 4850.2181 4615.8967 228.20687 -5.3232681 5.5741213 0.3060082
60697 31418.0 3794.9387 5513.1321 277.98556 -6.3600531 4.359339299999999 0.24509536
60697 31598.0 2576.9628 6173.997200000001 315.80643 -7.124505600000001 2.9571418 0.17361889
60697 31778.0 1248.4585 6570.032700000001 340.0375 -7.5836952 1.4272903 0.094638868
60697 31958.0 -133.62220000000002 6684.0755 349.62887 -7.7175926 -0.16490236 0.01153877
60697 32138.0 -1509.9549 6511.0161 344.15788000000003 -7.5199662 -1.7512903 -0.07211985900000001
60697 32318.0 -2821.3656 6058.053400000001 323.84816 -6.9987346 -3.2637367 -0.15274153000000001
60697 32498.0 -4011.3684 5344.4315 289.56258 -6.1757593 -4.637034399999999 -0.22684462
60697 32678.0 -5028.607400000001 4400.6516 242.76894000000001 -5.085979900000001 -5.811769 -0.29121387
60697 32858.0 -5829.0873 3267.1922000000004 185.47923 -3.7759608 -6.7368996 -0.34304013
60697 33038.0 -6378.1006 1992.7936000000002 120.16495 -2.3019756000000005 -7.372019000000001 -0.38004753
60697 33218.0 -6651.7661 632.3686 49.650248 -0.7276032400000001 -7.6892125 -0.40061081000000004
60697 33398.0 -6638.0987000000005 -755.36972 -23.012988 0.87903264 -7.6743375 -0.40383317
60697 33578.0 -6337.5645 -2110.46 -94.678982 2.4482185 -7.3277377 -0.38956836
60697 33758.0 -5763.086200000001 -3374.3188 -162.24289000000002 3.9117922 -6.6643274 -0.3584164
60697 33938.0 -4939.482 -4492.3112 -222.77447 5.206235700000001 -5.7128914 -0.31171453000000005
60697 34118.0 -3902.376 -5416.1364 -273.648 6.275431800000001 -4.5147626 -0.25149776
60697 34298.0 -2696.6413 -6105.9332 -312.66001 7.0731159 -3.1220412 -0.1804024
60697 34478.0 -1374.4317 -6532.0172 -338.12582000000003 7.5649595000000005 -1.5952761 -0.1015341
60697 34658.0 7.1103092 -6676.1597 -348.95182 7.730050100000001 -0.0007220639 -0.018330897000000002
60697 34838.0 1388.3527 -6532.3518 -344.68195000000003 7.5617308 1.5925962 0.0655887
60697 35018.0 2709.7699 -6107.031400000001 -325.51495 7.0678247 3.1159178 0.14659563
60697 35198.0 3914.52 -5418.7627 -292.29197 6.270194099999999 4.5037551 0.22120409000000002
60697 35378.0 4950.8838 -4497.3910000000005 -246.4588 5.2036785 5.6966897 0.28620431
60697 35558.0 5774.467000000001 -3382.7221 -190.00364000000002 3.9145238 6.6438546 0.33880305
60697 35738.0 6350.0779 -2122.7857000000004 -125.36946 2.4583597 7.3050614 0.37676099
60697 35918.0 6653.2013 -771.75484 -55.345132 0.89774913 7.6524693 0.39848453
60697 36098.0 6671.0042 612.38121 17.055275 -0.70053548 7.671640900000001 0.4030705
60697 36278.0 6402.8442000000005 1970.2798 88.719443 -2.2682694000000003 7.3620152 0.39033465
60697 36458.0 5860.2834 3243.7509 156.56793 -3.7385488000000002 6.7369343 0.36082713
60697 36638.0 5067.9183 4379.4068 217.74413 -5.044868800000001 5.8236704 0.31583195000000003
60697 36818.0 4057.8003 5326.3561 269.50662 -6.1382972 4.6608326 0.25726755
60697 36998.0 2873.9129 6045.2613 309.69355 -6.9688699 3.2982262 0.18764042
